FENGYUN 1C DEB          
1 32343U 99025CYL 17344.04832906  .00000096  00000-0  63188-4 0  9996
2 32343  98.7222  21.5322 0158796 259.5847  98.7397 14.15822223541944
